[{"OBJECT_NAME":"STARLINK-5920","OBJECT_ID":"2023-037X","EPOCH":"2026-03-09T22:11:22.157664","MEAN_MOTION":14.98330041,"ECCENTRICITY":0.00027806,"INCLINATION":69.9981,"RA_OF_ASC_NODE":283.935,"ARG_OF_PERICENTER":270.2214,"MEAN_ANOMALY":89.8627,"EPHEMERIS_TYPE":0,"CLASSIFICATION_TYPE":"U","NORAD_CAT_ID":55935,"ELEMENT_SET_NO":999,"REV_AT_EPOCH":16401,"BSTAR":-3.4794604e-5,"MEAN_MOTION_DOT":-5.08e-6,"MEAN_MOTION_DDOT":0},{"OBJECT_NAME":"FENGYUN 1C DEB","OBJECT_ID":"1999-025ANY","EPOCH":"2026-03-09T08:51:51.179904","MEAN_MOTION":14.80233032,"ECCENTRICITY":0.01316132,"INCLINATION":98.9514,"RA_OF_ASC_NODE":17.5129,"ARG_OF_PERICENTER":213.735,"MEAN_ANOMALY":278.8739,"EPHEMERIS_TYPE":0,"CLASSIFICATION_TYPE":"U","NORAD_CAT_ID":30641,"ELEMENT_SET_NO":999,"REV_AT_EPOCH":1813,"BSTAR":0.00059169636,"MEAN_MOTION_DOT":5.147e-5,"MEAN_MOTION_DDOT":0}]
